ONEWEB-0228             
1 48780U 21045P   23264.90850282  .00000168  00000+0  41090-3 0  9991
2 48780  87.8936  98.1561 0001843  86.4383 273.6958 13.15552556112943
